satname,norad_id,inclination_deg,eccentricity,mean_motion_rev_per_day,perigee_km,apogee_km,l1,l2
STARLINK-1573,46061,53.1593,0.0001237,15.31701892,469.88714989125765,471.58156066455285,1 46061U 20055AL  26195.51256145  .00000185  00000+0  17716-4 0  9990,2 46061  53.1593 243.7976 0001237  84.9823 275.1320 15.31701892328505
STARLINK-1577,46063,53.1577,0.0001071,15.3171246,469.96934211755706,471.4363636140406,1 46063U 20055AN  26195.60576620  .00002915  00000+0  10563-3 0  9990,2 46063  53.1577 243.3588 0001071  70.9955 289.1163 15.31712460328515
STARLINK-1583,46064,53.1599,0.0001638,15.31634093,469.81458937410025,472.0583458420888,1 46064U 20055AP  26195.42407574  .00012664  00000+0  42003-3 0  9998,2 46064  53.1599 244.7092 0001638  97.1351 262.9837 15.31634093328472
STARLINK-1536,46070,53.1583,0.0001009,15.31705431,470.032755689791,471.4148558003908,1 46070U 20055AV  26195.49060239  .00001787  00000+0  69333-4 0  9995,2 46070  53.1583 231.7813 0001009  96.2338 263.8779 15.31705431328667
STARLINK-1542,46073,53.1582,0.0001216,15.3171367,469.8664274825296,471.5320644575495,1 46073U 20055AY  26195.58022125  .00002551  00000+0  93898-4 0  9993,2 46073  53.1582 234.3338 0001216  70.2718 289.8414 15.31713670328628
STARLINK-1549,46074,53.0471,0.0002186,15.34453164,461.04985702206613,464.0406032930896,1 46074U 20055AZ  26195.39224045  .00022741  00000+0  68093-3 0  9999,2 46074  53.0471 231.7556 0002186  35.4553 324.6593 15.34453164328623
STARLINK-1551,46075,53.1589,0.000124,15.3169917,469.89320835936815,471.5917304677823,1 46075U 20055BA  26195.41636605  .00001004  00000+0  44101-4 0  9996,2 46075  53.1589 232.0655 0001240  80.3479 279.7662 15.31699170328640
STARLINK-1552,46076,53.1566,0.0001155,15.3171168,469.91413670311795,471.4962192462299,1 46076U 20055BB  26195.46757807  .00004266  00000+0  14910-3 0  9997,2 46076  53.1566 231.4106 0001155  79.0555 281.0577 15.31711680328647
STARLINK-1559,46077,53.02,0.000509,15.41708506,437.5957038189317,444.5376531636366,1 46077U 20055BC  26195.32950343  .00027361  00000+0  64531-3 0  9998,2 46077  53.0200 198.8199 0005090  29.8399 330.2894 15.41708506329049
STARLINK-1566,46079,53.1589,0.0001166,15.3169962,469.9425487963845,471.5397071758307,1 46079U 20055BE  26195.53747502  .00000502  00000+0  27954-4 0  9991,2 46079  53.1589 230.9382 0001166  87.7266 272.3868 15.31699620328670
STARLINK-1568,46080,53.0546,0.0003108,15.57355889,393.2077971077224,397.4181736186247,1 46080U 20055BF  26195.55749847  .00033169  00000+0  45007-3 0  9992,2 46080  53.0546 142.6013 0003108 108.1421 251.9929 15.57355889329893
STARLINK-1578,46082,53.1593,0.000108,15.31696839,470.00973828522183,471.4890977515133,1 46082U 20055BH  26195.54186882  .00001017  00000+0  44518-4 0  9991,2 46082  53.1593 231.4339 0001080  88.1491 271.9634 15.31696839328661
STARLINK-1579,46083,53.1585,0.0001176,15.31710108,469.90443957812295,471.51528836052876,1 46083U 20055BJ  26195.39764927  .00001905  00000+0  73115-4 0  9998,2 46083  53.1585 231.6400 0001176  73.3117 286.8013 15.31710108328641
STARLINK-1622,46128,53.0059,0.001339,16.1171524,233.2775566775881,251.00666413525596,1 46128U 20057M   26195.87294262  .00729226  30758-3  66572-3 0  9991,2 46128  53.0059 305.8773 0013390 323.0985  36.9126 16.11715240327461
STARLINK-1623,46129,53.0356,0.0003632,15.86692129,309.13464831935835,313.99404737843633,1 46129U 20057N   26195.91670139  .00173801  00000+0  65741-3 0  9990,2 46129  53.0356 348.0946 0003632 290.0633 328.1714 15.86692129  6053
STARLINK-1596,46141,53.0336,0.0002346,15.66241326,368.0880462554542,371.25411780754257,1 46141U 20057AA  26195.59602859  .00045692  00000+0  43741-3 0  9994,2 46141  53.0336 336.7799 0002346 232.2867 127.7935 15.66241326327021
STARLINK-1597,46142,53.0388,0.0004238,15.85176378,312.9912427548852,318.665047611943,1 46142U 20057AB  26195.91670139  .00180181  00000+0  73274-3 0  9994,2 46142  53.0388  28.0399 0004238 244.5391  49.4559 15.85176378  5992
STARLINK-1608,46146,53.1571,0.0005145,15.39546327,443.938132111356,450.9616610279263,1 46146U 20057AF  26195.83202426  .00034310  00000+0  86569-3 0  9992,2 46146  53.1571  75.4077 0005145 105.2467 254.9106 15.39546327325692
STARLINK-1595,46159,53.038,0.0003532,15.81881841,322.75154315541477,327.48672328792236,1 46159U 20057AU  26195.83335647  .00105176  00000+0  50560-3 0  9999,2 46159  53.0380  31.9190 0003532 218.7045 157.0003 15.81881841  5881
STARLINK-1598,46160,53.0424,0.0003769,15.80177839,327.40901388470866,332.46556028231225,1 46160U 20057AV  26195.76231867  .00100265  00000+0  52177-3 0  9992,2 46160  53.0424  18.6884 0003769 300.3507  59.7141 15.80177839327698
STARLINK-1626,46167,53.0365,0.0005765,15.85812875,310.1788179285368,317.89489438468536,1 46167U 20057BC  26195.77961139  .00141158  00000+0  55951-3 0  9991,2 46167  53.0365  26.8877 0005765 268.2275  91.8088 15.85812875326332
STARLINK-1633,46171,53.0269,0.0011805,16.03708863,256.3166996367654,271.9991579636626,1 46171U 20057BG  26195.83835853  .00440587  99222-4  67347-3 0  9995,2 46171  53.0269 344.4913 0011805 308.2728  51.7240 16.03708863328182
STARLINK-1640,46173,53.0362,0.0003126,15.82197834,322.1314384710995,326.32175619215104,1 46173U 20057BJ  26195.83335647  .00055354  00000+0  26535-3 0  9992,2 46173  53.0362  32.9132 0003126 222.4377 325.2653 15.82197834  5976
STARLINK-1641,46174,53.0451,0.0003134,15.68682402,360.5563790979995,364.7815162660063,1 46174U 20057BK  26195.81134514  .00050394  00000+0  43623-3 0  9997,2 46174  53.0451  27.7875 0003134 269.8574  90.2082 15.68682402326329
STARLINK-1695,46329,53.0379,0.0004789,15.86125379,309.95335578393406,316.36227795953346,1 46329U 20062E   26195.83335647  .00104023  00000+0  40875-3 0  9992,2 46329  53.0379  69.5051 0004789 244.2283 286.7586 15.86125379  6030
STARLINK-1719,46331,53.0269,0.0007236,16.00018329,269.5541431477468,279.1816482327895,1 46331U 20062G   26195.83335647  .00376765  71419-4  72021-3 0  9994,2 46331  53.0269  66.5564 0007236 245.4268 171.7451 16.00018329  6063
STARLINK-1759,46340,53.0012,0.0008665,16.14409518,229.0442773490031,240.50445274462982,1 46340U 20062R   26195.89172273  .01063167  75194-3  81809-3 0  9991,2 46340  53.0012  54.0904 0008665 258.3194 101.6868 16.14409518325020
STARLINK-1762,46342,53.1527,0.0004375,15.41558975,438.52405135066056,444.49124041580944,1 46342U 20062T   26195.26929250  .00047108  00000+0  11070-2 0  9997,2 46342  53.1527 138.2127 0004375  32.5398 327.5876 15.41558975323845
